IRIDIUM 8 [+]           
1 24792U 97020A   09122.49312637 -.00000046  00000-0 -23510-4 0  5983
2 24792  86.3947 119.0509 0002588  83.9270 276.2215 14.34215554627835
IRIDIUM 7 [+]           
1 24793U 97020B   09122.48679593 -.00000106  00000-0 -44952-4 0  5968
2 24793  86.3936 119.1836 0002605  84.2579 275.8917 14.34214813627835
IRIDIUM 6 [+]           
1 24794U 97020C   09122.48044501 -.00000078  00000-0 -35088-4 0  3959
2 24794  86.3951 119.1754 0002358  83.3020 276.8439 14.34215252627836
IRIDIUM 5 [+]           
1 24795U 97020D   09122.47409403 -.00000041  00000-0 -21752-4 0  7301
2 24795  86.3923 119.3375 0001541 116.9005 243.2371 14.34215814627912
IRIDIUM 4 [+]           
1 24796U 97020E   09122.49947247 -.00000061  00000-0 -28957-4 0  6188
2 24796  86.3921 118.9515 0002540  84.1669 275.9811 14.34215531627854
IRIDIUM 914 [-]         
1 24836U 97030A   09122.11178858  .00000055  00000-0  11872-4 0  2014
2 24836  86.3936 143.6260 0003676  94.5044 265.6569 14.37432837622405
IRIDIUM 12 [+]          
1 24837U 97030B   09122.49021962 -.00000077  00000-0 -34463-4 0  6144
2 24837  86.3986 150.4971 0002673  73.2639 286.8860 14.34220471621589
IRIDIUM 10 [+]          
1 24839U 97030D   09122.47754054 -.00000047  00000-0 -23814-4 0  6144
2 24839  86.3968 150.5007 0002616  83.3358 276.8143 14.34220087621596
IRIDIUM 13 [+]          
1 24840U 97030E   09122.49655955 -.00000053  00000-0 -25895-4 0  5718
2 24840  86.3969 150.5660 0002588  82.8559 277.2939 14.34220604621581
IRIDIUM 16 [-]          
1 24841U 97030F   09122.50813066  .00000090  00000-0  24548-4 0  5982
2 24841  86.4074 151.0895 0000630  56.2615 303.8646 14.35277600621726
IRIDIUM 911 [-]         
1 24842U 97030G   09121.63420425  .00000095  00000-0  22201-4 0  2873
2 24842  86.4477 153.6771 0013273 206.3222 153.7302 14.43165765624578
IRIDIUM 15 [+]          
1 24869U 97034A   09122.20826357  .00000207  00000-0  66782-4 0  6358
2 24869  86.4004 182.2285 0002508  89.6039 270.5443 14.34218617618514
IRIDIUM 17 [-]          
1 24870U 97034B   09122.37195376  .00000084  00000-0  22920-4 0  6043
2 24870  86.4006 182.0690 0002365  74.2103 285.9347 14.34429611618554
IRIDIUM 920 [-]         
1 24871U 97034C   09122.56803651  .00000030  00000-0  34575-5 0  2268
2 24871  86.4032 175.2233 0013108  21.5137 338.6608 14.38058744619679
IRIDIUM 18 [+]          
1 24872U 97034D   09122.51905736  .00000053  00000-0  11968-4 0  6013
2 24872  86.4027 182.2398 0002444  79.2376 280.9098 14.34216847618554
IRIDIUM 921 [-]         
1 24873U 97034E   09122.28927191  .00000090  00000-0  51008-5 0  5556
2 24873  86.3909  12.3231 0009902   8.3576 351.7816 14.97131923642342
IRIDIUM 26 [+]          
1 24903U 97043A   09122.36582862  .00000193  00000-0  61748-4 0  7109
2 24903  86.3952  55.9224 0002494  80.4227 279.7244 14.34218367612476
IRIDIUM 25 [+]          
1 24904U 97043B   09122.32775135  .00000219  00000-0  71114-4 0  6020
2 24904  86.3951  55.8881 0002501  76.7528 283.3941 14.34219151612438
IRIDIUM 46 [+]          
1 24905U 97043C   09122.34044726  .00000214  00000-0  69485-4 0  6166
2 24905  86.3960  56.1607 0002499  79.6543 280.4933 14.34218859612448
IRIDIUM 23 [+]          
1 24906U 97043D   09122.31507723  .00000168  00000-0  52841-4 0  6172
2 24906  86.3952  55.8288 0002469  76.6852 283.4614 14.34218382612448
IRIDIUM 22 [+]          
1 24907U 97043E   09122.30872830  .00000224  00000-0  72799-4 0  5903
2 24907  86.3963  56.2191 0002524  80.1054 280.0424 14.34218827612441
DUMMY MASS 1 [-]        
1 24925U 97048A   09122.61193979  .00000056  00000-0  33924-5 0  1932
2 24925  86.3329 329.8864 0009852  79.4514 280.7826 14.83825136631373
DUMMY MASS 2 [-]        
1 24926U 97048B   09122.53842652  .00000048  00000-0  24121-5 0  1876
2 24926  86.3325 330.5598 0010658  82.8883 277.3558 14.83606074631277
IRIDIUM 29 [+]          
1 24944U 97051A   09122.52783009  .00000038  00000-0  65400-5 0  5686
2 24944  86.3924  87.4441 0002543  79.2973 280.8498 14.34212828609049
IRIDIUM 32 [+]          
1 24945U 97051B   09122.47710016  .00000088  00000-0  24185-4 0  5734
2 24945  86.3924  87.4795 0002555  82.4631 277.6854 14.34212666609053
IRIDIUM 33 [-]          
1 24946U 97051C   09121.46414749  .00000049  00000-0  10779-4 0  6278
2 24946  86.3830  87.9444 0007698 168.4704 191.6679 14.32474904608899
IRIDIUM 28 [-]          
1 24948U 97051E   09122.44823804  .00000137  00000-0  41815-4 0  4322
2 24948  86.3924  87.6363 0001979  86.1475 273.9947 14.34256335609025
IRIDIUM 30 [+]          
1 24949U 97051F   09122.40098710  .00000040  00000-0  71573-5 0  6105
2 24949  86.3929  87.5638 0002500  76.6192 283.5279 14.34212499609024
IRIDIUM 31 [+]          
1 24950U 97051G   09122.53419096  .00000012  00000-0 -26486-5 0  5994
2 24950  86.3924  87.4994 0002477  73.0770 287.0695 14.34212168609058
IRIDIUM 19 [+]          
1 24965U 97056A   09122.51850195 -.00000048  00000-0 -24135-4 0  5732
2 24965  86.3948 119.0162 0002521  85.1481 275.0002 14.34215371607193
IRIDIUM 35 [+]          
1 24966U 97056B   09122.53118438 -.00000039  00000-0 -21145-4 0  6214
2 24966  86.3936 119.0349 0002517  79.9065 280.2414 14.34215550607174
IRIDIUM 36 [-]          
1 24967U 97056C   09122.51609343  .00000130  00000-0  39308-4 0  5504
2 24967  86.3932 119.1090 0002380  85.1404 275.0073 14.34292796607315
IRIDIUM 37 [+]          
1 24968U 97056D   09122.50581567 -.00000042  00000-0 -22028-4 0  5832
2 24968  86.3950 119.1437 0002601  82.7896 277.3591 14.34215513607171
IRIDIUM 34 [+]          
1 24969U 97056E   09122.52483376 -.00000084  00000-0 -37224-4 0  5733
2 24969  86.3929 119.0810 0002542  81.5684 278.5799 14.34215678607173
IRIDIUM 43 [+]          
1 25039U 97069A   09122.30340881  .00000276  00000-0  91408-4 0  5673
2 25039  86.4026 182.3480 0002506  86.4411 273.7072 14.34217678600928
IRIDIUM 41 [+]          
1 25040U 97069B   09122.29706819  .00000261  00000-0  86070-4 0  5594
2 25040  86.4008 182.2621 0002478  84.6263 275.5215 14.34217246600929
IRIDIUM 40 [+]          
1 25041U 97069C   09122.53174422  .00000194  00000-0  62283-4 0  5866
2 25041  86.4021 182.1331 0002538  83.9696 276.1789 14.34217114600973
IRIDIUM 39 [+]          
1 25042U 97069D   09122.53804517 -.00001159  00000-0 -42104-3 0  5595
2 25042  86.4037 182.2906 0002281  87.6591 272.4864 14.34216720600953
IRIDIUM 38 [-]          
1 25043U 97069E   09122.27465904  .00000129  00000-0  38604-4 0  5865
2 25043  86.4017 181.6703 0001556  83.8420 276.2950 14.34694053601029
IRIDIUM 42 [+]          
1 25077U 97077A   09122.52540158  .00000143  00000-0  43833-4 0  5725
2 25077  86.4006 182.2107 0002518  84.0435 276.1048 14.34216708596811
IRIDIUM 44 [-]          
1 25078U 97077B   09122.23414131  .00000090  00000-0  23837-4 0  1016
2 25078  86.4007 177.9322 0000964  44.8203 315.3062 14.36546191597337
IRIDIUM 45 [+]          
1 25104U 97082A   09122.33409834  .00000202  00000-0  65141-4 0  5188
2 25104  86.3952  55.9108 0002460  77.4048 282.7422 14.34218848594982
IRIDIUM 24 [-]          
1 25105U 97082B   09121.93275743  .00000010  00000-0 -32118-5 0  1536
2 25105  86.3930  46.8788 0013203  29.0946 331.0983 14.38257676596000
IRIDIUM 47 [+]          
1 25106U 97082C   09122.34678359  .00000176  00000-0  55661-4 0  5097
2 25106  86.3953  55.8480 0002528  81.5212 278.6263 14.34218662594982
IRIDIUM 49 [+]          
1 25108U 97082E   09122.35947843  .00000231  00000-0  75426-4 0  5281
2 25108  86.3950  55.8621 0002489  77.1444 283.0028 14.34218647594995
IRIDIUM 52 [+]          
1 25169U 98010A   09122.52826164 -.00000108  00000-0 -45799-4 0  3149
2 25169  86.3970 150.6383 0002562  81.4553 278.6936 14.34220575586424
IRIDIUM 56 [+]          
1 25170U 98010B   09122.52192524 -.00000056  00000-0 -26960-4 0  3711
2 25170  86.3969 150.6863 0002602  84.9012 275.2483 14.34220874586400
IRIDIUM 54 [+]          
1 25171U 98010C   09122.48387696 -.00000062  00000-0 -29077-4 0  5400
2 25171  86.3974 150.6607 0002571  81.7446 278.4055 14.34220472586565
IRIDIUM 50 [+]          
1 25172U 98010D   09122.51558662 -.00000031  00000-0 -17973-4 0  5620
2 25172  86.3998 150.6194 0002603  84.6032 275.5462 14.34220768586403
IRIDIUM 53 [+]          
1 25173U 98010E   09122.53461374  .00000017  00000-0 -88993-6 0  5474
2 25173  86.4003 150.6219 0002582  82.1202 278.0285 14.34220911586410
IRIDIUM 51 [S]          
1 25262U 98018A   09122.49872556 -.00000016  00000-0 -10901-4 0  6501
2 25262  86.4463 119.1916 0002574  82.5066 277.6424 14.42948591584784
IRIDIUM 61 [+]          
1 25263U 98018B   09122.51216283 -.00000063  00000-0 -29565-4 0  5006
2 25263  86.3945 119.1178 0002529  80.4709 279.6770 14.34215309581508
IRIDIUM 55 [+]          
1 25272U 98019A   09122.44537726  .00000070  00000-0  18097-4 0  4987
2 25272  86.3921  87.4246 0002477  78.9991 281.1483 14.34213085580699
IRIDIUM 57 [+]          
1 25273U 98019B   09122.42000835  .00000087  00000-0  23863-4 0  5292
2 25273  86.3922  87.6115 0002481  81.9093 278.2384 14.34213188580691
IRIDIUM 58 [+]          
1 25274U 98019C   09122.42636050  .00000077  00000-0  20349-4 0  3391
2 25274  86.3930  87.7174 0002456  74.4676 285.6791 14.34212694580698
IRIDIUM 59 [+]          
1 25275U 98019D   09122.43270042 -.00000005  00000-0 -89020-5 0  1852
2 25275  86.3925  87.7282 0002751  60.8006 299.3465 14.34212377580695
IRIDIUM 60 [+]          
1 25276U 98019E   09122.43905023  .00000095  00000-0  26719-4 0  5640
2 25276  86.3921  87.4614 0002496  80.8740 279.2731 14.34212614580698
IRIDIUM 62 [+]          
1 25285U 98021A   09122.33071177  .00000242  00000-0  79409-4 0  5228
2 25285  86.3983  24.3219 0002463  74.8945 285.2523 14.34218741579636
IRIDIUM 63 [+]          
1 25286U 98021B   09122.26728709  .00000055  00000-0  12721-4 0  5362
2 25286  86.3982  24.4330 0002450  77.1459 283.0010 14.34217678579627
